[
  {
    "COMMENT": "GENERATED VIA SPACETRACK.ORG API",
    "ORIGINATOR": "18 SPCS",
    "NORAD_CAT_ID": "43682",
    "OBJECT_NAME": "H-2A R/B",
    "OBJECT_TYPE": "ROCKET BODY",
    "CLASSIFICATION_TYPE": "U",
    "INTLDES": "18084L",
    "EPOCH": "2023-05-09 13:18:27",
    "EPOCH_MICROSECONDS": "614592",
    "MEAN_MOTION": "15.08137933",
    "ECCENTRICITY": "0.0049846",
    "INCLINATION": "98.8966",
    "RA_OF_ASC_NODE": "147.6105",
    "ARG_OF_PERICENTER": "270.9792",
    "MEAN_ANOMALY": "88.5721",
    "EPHEMERIS_TYPE": "0",
    "ELEMENT_SET_NO": "999",
    "REV_AT_EPOCH": "24839",
    "BSTAR": "0.00039165",
    "MEAN_MOTION_DOT": "0.00006139",
    "MEAN_MOTION_DDOT": "0",
    "FILE": "3904490",
    "TLE_LINE0": "0 H-2A R/B",
    "TLE_LINE1": "1 43682U 18084L   23129.55448628  .00006139  00000-0  39165-3 0  9999",
    "TLE_LINE2": "2 43682  98.8966 147.6105 0049846 270.9792  88.5721 15.08137933248399",
    "OBJECT_ID": "2018-084L",
    "OBJECT_NUMBER": "43682",
    "SEMIMAJOR_AXIS": "6920.027",
    "PERIOD": "95.482",
    "APOGEE": "576.386",
    "PERIGEE": "507.399",
    "DECAYED": "0"
  },
  {
    "COMMENT": "GENERATED VIA SPACETRACK.ORG API",
    "ORIGINATOR": "18 SPCS",
    "NORAD_CAT_ID": "43682",
    "OBJECT_NAME": "H-2A R/B",
    "OBJECT_TYPE": "ROCKET BODY",
    "CLASSIFICATION_TYPE": "U",
    "INTLDES": "18084L",
    "EPOCH": "2023-05-10 10:00:28",
    "EPOCH_MICROSECONDS": "593504",
    "MEAN_MOTION": "15.0814894",
    "ECCENTRICITY": "0.0049918",
    "INCLINATION": "98.8965",
    "RA_OF_ASC_NODE": "148.6084",
    "ARG_OF_PERICENTER": "268.0605",
    "MEAN_ANOMALY": "91.4902",
    "EPHEMERIS_TYPE": "0",
    "ELEMENT_SET_NO": "999",
    "REV_AT_EPOCH": "24852",
    "BSTAR": "0.00042897",
    "MEAN_MOTION_DOT": "0.00006735",
    "MEAN_MOTION_DDOT": "0",
    "FILE": "3904555",
    "TLE_LINE0": "0 H-2A R/B",
    "TLE_LINE1": "1 43682U 18084L   23130.41699761  .00006735  00000-0  42897-3 0  9990",
    "TLE_LINE2": "2 43682  98.8965 148.6084 0049918 268.0605  91.4902 15.08148940248525",
    "OBJECT_ID": "2018-084L",
    "OBJECT_NUMBER": "43682",
    "SEMIMAJOR_AXIS": "6919.993",
    "PERIOD": "95.481",
    "APOGEE": "576.402",
    "PERIGEE": "507.315",
    "DECAYED": "0"
  },
  {
    "COMMENT": "GENERATED VIA SPACETRACK.ORG API",
    "ORIGINATOR": "18 SPCS",
    "NORAD_CAT_ID": "43682",
    "OBJECT_NAME": "H-2A R/B",
    "OBJECT_TYPE": "ROCKET BODY",
    "CLASSIFICATION_TYPE": "U",
    "INTLDES": "18084L",
    "EPOCH": "2023-05-10 14:47:05",
    "EPOCH_MICROSECONDS": "658144",
    "MEAN_MOTION": "15.08152041",
    "ECCENTRICITY": "0.0049927",
    "INCLINATION": "98.8965",
    "RA_OF_ASC_NODE": "148.8387",
    "ARG_OF_PERICENTER": "267.3897",
    "MEAN_ANOMALY": "92.1611",
    "EPHEMERIS_TYPE": "0",
    "ELEMENT_SET_NO": "999",
    "REV_AT_EPOCH": "24855",
    "BSTAR": "0.00044703",
    "MEAN_MOTION_DOT": "0.00007023",
    "MEAN_MOTION_DDOT": "0",
    "FILE": "3904830",
    "TLE_LINE0": "0 H-2A R/B",
    "TLE_LINE1": "1 43682U 18084L   23130.61603771  .00007023  00000-0  44703-3 0  9997",
    "TLE_LINE2": "2 43682  98.8965 148.8387 0049927 267.3897  92.1611 15.08152041248553",
    "OBJECT_ID": "2018-084L",
    "OBJECT_NUMBER": "43682",
    "SEMIMAJOR_AXIS": "6919.984",
    "PERIOD": "95.481",
    "APOGEE": "576.398",
    "PERIGEE": "507.300",
    "DECAYED": "0"
  },
  {
    "COMMENT": "GENERATED VIA SPACETRACK.ORG API",
    "ORIGINATOR": "18 SPCS",
    "NORAD_CAT_ID": "43682",
    "OBJECT_NAME": "H-2A R/B",
    "OBJECT_TYPE": "ROCKET BODY",
    "CLASSIFICATION_TYPE": "U",
    "INTLDES": "18084L",
    "EPOCH": "2023-05-11 00:20:19",
    "EPOCH_MICROSECONDS": "682880",
    "MEAN_MOTION": "15.08156321",
    "ECCENTRICITY": "0.0049984",
    "INCLINATION": "98.8963",
    "RA_OF_ASC_NODE": "149.2993",
    "ARG_OF_PERICENTER": "266.0202",
    "MEAN_ANOMALY": "93.5308",
    "EPHEMERIS_TYPE": "0",
    "ELEMENT_SET_NO": "999",
    "REV_AT_EPOCH": "24861",
    "BSTAR": "0.00042132",
    "MEAN_MOTION_DOT": "0.00006615",
    "MEAN_MOTION_DDOT": "0",
    "FILE": "3905210",
    "TLE_LINE0": "0 H-2A R/B",
    "TLE_LINE1": "1 43682U 18084L   23131.01411670  .00006615  00000-0  42132-3 0  9997",
    "TLE_LINE2": "2 43682  98.8963 149.2993 0049984 266.0202  93.5308 15.08156321248618",
    "OBJECT_ID": "2018-084L",
    "OBJECT_NUMBER": "43682",
    "SEMIMAJOR_AXIS": "6919.971",
    "PERIOD": "95.481",
    "APOGEE": "576.425",
    "PERIGEE": "507.247",
    "DECAYED": "0"
  },
  {
    "COMMENT": "GENERATED VIA SPACETRACK.ORG API",
    "ORIGINATOR": "18 SPCS",
    "NORAD_CAT_ID": "43682",
    "OBJECT_NAME": "H-2A R/B",
    "OBJECT_TYPE": "ROCKET BODY",
    "CLASSIFICATION_TYPE": "U",
    "INTLDES": "18084L",
    "EPOCH": "2023-05-11 19:26:47",
    "EPOCH_MICROSECONDS": "446368",
    "MEAN_MOTION": "15.081672",
    "ECCENTRICITY": "0.0050045",
    "INCLINATION": "98.8964",
    "RA_OF_ASC_NODE": "150.2203",
    "ARG_OF_PERICENTER": "263.3229",
    "MEAN_ANOMALY": "96.2298",
    "EPHEMERIS_TYPE": "0",
    "ELEMENT_SET_NO": "999",
    "REV_AT_EPOCH": "24873",
    "BSTAR": "0.00045323",
    "MEAN_MOTION_DOT": "0.00007126",
    "MEAN_MOTION_DDOT": "0",
    "FILE": "3905379",
    "TLE_LINE0": "0 H-2A R/B",
    "TLE_LINE1": "1 43682U 18084L   23131.81027137  .00007126  00000-0  45323-3 0  9999",
    "TLE_LINE2": "2 43682  98.8964 150.2203 0050045 263.3229  96.2298 15.08167200248733",
    "OBJECT_ID": "2018-084L",
    "OBJECT_NUMBER": "43682",
    "SEMIMAJOR_AXIS": "6919.938",
    "PERIOD": "95.480",
    "APOGEE": "576.433",
    "PERIGEE": "507.172",
    "DECAYED": "0"
  },
  {
    "COMMENT": "GENERATED VIA SPACETRACK.ORG API",
    "ORIGINATOR": "18 SPCS",
    "NORAD_CAT_ID": "43682",
    "OBJECT_NAME": "H-2A R/B",
    "OBJECT_TYPE": "ROCKET BODY",
    "CLASSIFICATION_TYPE": "U",
    "INTLDES": "18084L",
    "EPOCH": "2023-05-12 00:13:24",
    "EPOCH_MICROSECONDS": "293280",
    "MEAN_MOTION": "15.0816968",
    "ECCENTRICITY": "0.0050064",
    "INCLINATION": "98.8965",
    "RA_OF_ASC_NODE": "150.4507",
    "ARG_OF_PERICENTER": "262.669",
    "MEAN_ANOMALY": "96.8842",
    "EPHEMERIS_TYPE": "0",
    "ELEMENT_SET_NO": "999",
    "REV_AT_EPOCH": "24876",
    "BSTAR": "0.00042525",
    "MEAN_MOTION_DOT": "0.00006681",
    "MEAN_MOTION_DDOT": "0",
    "FILE": "3905921",
    "TLE_LINE0": "0 H-2A R/B",
    "TLE_LINE1": "1 43682U 18084L   23132.00930895  .00006681  00000-0  42525-3 0  9991",
    "TLE_LINE2": "2 43682  98.8965 150.4507 0050064 262.6690  96.8842 15.08169680248766",
    "OBJECT_ID": "2018-084L",
    "OBJECT_NUMBER": "43682",
    "SEMIMAJOR_AXIS": "6919.930",
    "PERIOD": "95.480",
    "APOGEE": "576.439",
    "PERIGEE": "507.151",
    "DECAYED": "0"
  },
  {
    "COMMENT": "GENERATED VIA SPACETRACK.ORG API",
    "ORIGINATOR": "18 SPCS",
    "NORAD_CAT_ID": "43682",
    "OBJECT_NAME": "H-2A R/B",
    "OBJECT_TYPE": "ROCKET BODY",
    "CLASSIFICATION_TYPE": "U",
    "INTLDES": "18084L",
    "EPOCH": "2023-05-12 19:19:51",
    "EPOCH_MICROSECONDS": "455424",
    "MEAN_MOTION": "15.08182549",
    "ECCENTRICITY": "0.0050067",
    "INCLINATION": "98.8966",
    "RA_OF_ASC_NODE": "151.3719",
    "ARG_OF_PERICENTER": "260.0363",
    "MEAN_ANOMALY": "99.5209",
    "EPHEMERIS_TYPE": "0",
    "ELEMENT_SET_NO": "999",
    "REV_AT_EPOCH": "24888",
    "BSTAR": "0.00051907",
    "MEAN_MOTION_DOT": "0.00008179",
    "MEAN_MOTION_DDOT": "0",
    "FILE": "3906381",
    "TLE_LINE0": "0 H-2A R/B",
    "TLE_LINE1": "1 43682U 18084L   23132.80545666  .00008179  00000-0  51907-3 0  9995",
    "TLE_LINE2": "2 43682  98.8966 151.3719 0050067 260.0363  99.5209 15.08182549248883",
    "OBJECT_ID": "2018-084L",
    "OBJECT_NUMBER": "43682",
    "SEMIMAJOR_AXIS": "6919.891",
    "PERIOD": "95.479",
    "APOGEE": "576.402",
    "PERIGEE": "507.110",
    "DECAYED": "0"
  },
  {
    "COMMENT": "GENERATED VIA SPACETRACK.ORG API",
    "ORIGINATOR": "18 SPCS",
    "NORAD_CAT_ID": "43682",
    "OBJECT_NAME": "H-2A R/B",
    "OBJECT_TYPE": "ROCKET BODY",
    "CLASSIFICATION_TYPE": "U",
    "INTLDES": "18084L",
    "EPOCH": "2023-05-13 00:06:28",
    "EPOCH_MICROSECONDS": "154592",
    "MEAN_MOTION": "15.08185954",
    "ECCENTRICITY": "0.0050071",
    "INCLINATION": "98.8966",
    "RA_OF_ASC_NODE": "151.6022",
    "ARG_OF_PERICENTER": "259.3829",
    "MEAN_ANOMALY": "100.1754",
    "EPHEMERIS_TYPE": "0",
    "ELEMENT_SET_NO": "999",
    "REV_AT_EPOCH": "24891",
    "BSTAR": "0.00052894",
    "MEAN_MOTION_DOT": "0.00008338",
    "MEAN_MOTION_DDOT": "0",
    "FILE": "3906498",
    "TLE_LINE0": "0 H-2A R/B",
    "TLE_LINE1": "1 43682U 18084L   23133.00449253  .00008338  00000-0  52894-3 0  9996",
    "TLE_LINE2": "2 43682  98.8966 151.6022 0050071 259.3829 100.1754 15.08185954248917",
    "OBJECT_ID": "2018-084L",
    "OBJECT_NUMBER": "43682",
    "SEMIMAJOR_AXIS": "6919.880",
    "PERIOD": "95.479",
    "APOGEE": "576.394",
    "PERIGEE": "507.097",
    "DECAYED": "0"
  },
  {
    "COMMENT": "GENERATED VIA SPACETRACK.ORG API",
    "ORIGINATOR": "18 SPCS",
    "NORAD_CAT_ID": "43682",
    "OBJECT_NAME": "H-2A R/B",
    "OBJECT_TYPE": "ROCKET BODY",
    "CLASSIFICATION_TYPE": "U",
    "INTLDES": "18084L",
    "EPOCH": "2023-05-13 12:50:45",
    "EPOCH_MICROSECONDS": "904128",
    "MEAN_MOTION": "15.08191147",
    "ECCENTRICITY": "0.0050068",
    "INCLINATION": "98.8968",
    "RA_OF_ASC_NODE": "152.2162",
    "ARG_OF_PERICENTER": "257.5557",
    "MEAN_ANOMALY": "102.0062",
    "EPHEMERIS_TYPE": "0",
    "ELEMENT_SET_NO": "999",
    "REV_AT_EPOCH": "24899",
    "BSTAR": "0.00042952",
    "MEAN_MOTION_DOT": "0.00006753",
    "MEAN_MOTION_DDOT": "0",
    "FILE": "3906915",
    "TLE_LINE0": "0 H-2A R/B",
    "TLE_LINE1": "1 43682U 18084L   23133.53525352  .00006753  00000-0  42952-3 0  9992",
    "TLE_LINE2": "2 43682  98.8968 152.2162 0050068 257.5557 102.0062 15.08191147248997",
    "OBJECT_ID": "2018-084L",
    "OBJECT_NUMBER": "43682",
    "SEMIMAJOR_AXIS": "6919.864",
    "PERIOD": "95.479",
    "APOGEE": "576.376",
    "PERIGEE": "507.083",
    "DECAYED": "0"
  }
]